<?xml version="1.0" encoding="UTF-8"?>
<ndm xmlns:xsi="http://www.w3.org/2001/XMLSchema-instance" xsi:noNamespaceSchemaLocation="https://sanaregistry.org/r/ndmxml_unqualified/ndmxml-2.0.0-master-2.0.xsd">
<omm id="CCSDS_OMM_VERS" version="2.0">
<header><CREATION_DATE/><ORIGINATOR/></header><body><segment><metadata><OBJECT_NAME>ORBCOMM FM33 [-]</OBJECT_NAME><OBJECT_ID>1999-065D</OBJECT_ID><CENTER_NAME>EARTH</CENTER_NAME><REF_FRAME>TEME</REF_FRAME><TIME_SYSTEM>UTC</TIME_SYSTEM><MEAN_ELEMENT_THEORY>SGP4</MEAN_ELEMENT_THEORY></metadata><data><meanElements><EPOCH>2023-10-16T12:51:28.033632</EPOCH><MEAN_MOTION>14.36858860</MEAN_MOTION><ECCENTRICITY>.0010478</ECCENTRICITY><INCLINATION>45.0309</INCLINATION><RA_OF_ASC_NODE>9.6082</RA_OF_ASC_NODE><ARG_OF_PERICENTER>237.9998</ARG_OF_PERICENTER><MEAN_ANOMALY>136.4530</MEAN_ANOMALY></meanElements><tleParameters><EPHEMERIS_TYPE>0</EPHEMERIS_TYPE><CLASSIFICATION_TYPE>U</CLASSIFICATION_TYPE><NORAD_CAT_ID>25983</NORAD_CAT_ID><ELEMENT_SET_NO>999</ELEMENT_SET_NO><REV_AT_EPOCH>24837</REV_AT_EPOCH><BSTAR>.87033E-3</BSTAR><MEAN_MOTION_DOT>.2457E-4</MEAN_MOTION_DOT><MEAN_MOTION_DDOT>0</MEAN_MOTION_DDOT></tleParameters></data></segment></body></omm>
<omm id="CCSDS_OMM_VERS" version="2.0">
<header><CREATION_DATE/><ORIGINATOR/></header><body><segment><metadata><OBJECT_NAME>ORBCOMM FM36 [-]</OBJECT_NAME><OBJECT_ID>1999-065E</OBJECT_ID><CENTER_NAME>EARTH</CENTER_NAME><REF_FRAME>TEME</REF_FRAME><TIME_SYSTEM>UTC</TIME_SYSTEM><MEAN_ELEMENT_THEORY>SGP4</MEAN_ELEMENT_THEORY></metadata><data><meanElements><EPOCH>2023-10-16T11:22:37.644384</EPOCH><MEAN_MOTION>14.34722944</MEAN_MOTION><ECCENTRICITY>.0004032</ECCENTRICITY><INCLINATION>45.0385</INCLINATION><RA_OF_ASC_NODE>91.8315</RA_OF_ASC_NODE><ARG_OF_PERICENTER>128.2445</ARG_OF_PERICENTER><MEAN_ANOMALY>231.8766</MEAN_ANOMALY></meanElements><tleParameters><EPHEMERIS_TYPE>0</EPHEMERIS_TYPE><CLASSIFICATION_TYPE>U</CLASSIFICATION_TYPE><NORAD_CAT_ID>25984</NORAD_CAT_ID><ELEMENT_SET_NO>999</ELEMENT_SET_NO><REV_AT_EPOCH>24676</REV_AT_EPOCH><BSTAR>.85355E-3</BSTAR><MEAN_MOTION_DOT>.2299E-4</MEAN_MOTION_DOT><MEAN_MOTION_DDOT>0</MEAN_MOTION_DDOT></tleParameters></data></segment></body></omm>
<omm id="CCSDS_OMM_VERS" version="2.0">
<header><CREATION_DATE/><ORIGINATOR/></header><body><segment><metadata><OBJECT_NAME>ORBCOMM FM35 [+]</OBJECT_NAME><OBJECT_ID>1999-065F</OBJECT_ID><CENTER_NAME>EARTH</CENTER_NAME><REF_FRAME>TEME</REF_FRAME><TIME_SYSTEM>UTC</TIME_SYSTEM><MEAN_ELEMENT_THEORY>SGP4</MEAN_ELEMENT_THEORY></metadata><data><meanElements><EPOCH>2023-10-16T11:09:26.445888</EPOCH><MEAN_MOTION>14.34423577</MEAN_MOTION><ECCENTRICITY>.0003393</ECCENTRICITY><INCLINATION>45.0386</INCLINATION><RA_OF_ASC_NODE>93.9628</RA_OF_ASC_NODE><ARG_OF_PERICENTER>219.5359</ARG_OF_PERICENTER><MEAN_ANOMALY>140.5241</MEAN_ANOMALY></meanElements><tleParameters><EPHEMERIS_TYPE>0</EPHEMERIS_TYPE><CLASSIFICATION_TYPE>U</CLASSIFICATION_TYPE><NORAD_CAT_ID>25985</NORAD_CAT_ID><ELEMENT_SET_NO>999</ELEMENT_SET_NO><REV_AT_EPOCH>24716</REV_AT_EPOCH><BSTAR>.68649E-3</BSTAR><MEAN_MOTION_DOT>.1809E-4</MEAN_MOTION_DOT><MEAN_MOTION_DDOT>0</MEAN_MOTION_DDOT></tleParameters></data></segment></body></omm>
<omm id="CCSDS_OMM_VERS" version="2.0">
<header><CREATION_DATE/><ORIGINATOR/></header><body><segment><metadata><OBJECT_NAME>ORBCOMM FM34 [-]</OBJECT_NAME><OBJECT_ID>1999-065G</OBJECT_ID><CENTER_NAME>EARTH</CENTER_NAME><REF_FRAME>TEME</REF_FRAME><TIME_SYSTEM>UTC</TIME_SYSTEM><MEAN_ELEMENT_THEORY>SGP4</MEAN_ELEMENT_THEORY></metadata><data><meanElements><EPOCH>2023-10-17T09:41:58.672320</EPOCH><MEAN_MOTION>14.34374623</MEAN_MOTION><ECCENTRICITY>.0004361</ECCENTRICITY><INCLINATION>45.0385</INCLINATION><RA_OF_ASC_NODE>90.0127</RA_OF_ASC_NODE><ARG_OF_PERICENTER>174.5334</ARG_OF_PERICENTER><MEAN_ANOMALY>185.5561</MEAN_ANOMALY></meanElements><tleParameters><EPHEMERIS_TYPE>0</EPHEMERIS_TYPE><CLASSIFICATION_TYPE>U</CLASSIFICATION_TYPE><NORAD_CAT_ID>25986</NORAD_CAT_ID><ELEMENT_SET_NO>999</ELEMENT_SET_NO><REV_AT_EPOCH>24745</REV_AT_EPOCH><BSTAR>.71065E-3</BSTAR><MEAN_MOTION_DOT>.1876E-4</MEAN_MOTION_DOT><MEAN_MOTION_DDOT>0</MEAN_MOTION_DDOT></tleParameters></data></segment></body></omm>
<omm id="CCSDS_OMM_VERS" version="2.0">
<header><CREATION_DATE/><ORIGINATOR/></header><body><segment><metadata><OBJECT_NAME>ORBCOMM FM38 [-]</OBJECT_NAME><OBJECT_ID>2008-031A</OBJECT_ID><CENTER_NAME>EARTH</CENTER_NAME><REF_FRAME>TEME</REF_FRAME><TIME_SYSTEM>UTC</TIME_SYSTEM><MEAN_ELEMENT_THEORY>SGP4</MEAN_ELEMENT_THEORY></metadata><data><meanElements><EPOCH>2023-10-16T09:33:19.108512</EPOCH><MEAN_MOTION>14.76205531</MEAN_MOTION><ECCENTRICITY>.0006263</ECCENTRICITY><INCLINATION>48.4421</INCLINATION><RA_OF_ASC_NODE>328.8138</RA_OF_ASC_NODE><ARG_OF_PERICENTER>305.3689</ARG_OF_PERICENTER><MEAN_ANOMALY>54.6639</MEAN_ANOMALY></meanElements><tleParameters><EPHEMERIS_TYPE>0</EPHEMERIS_TYPE><CLASSIFICATION_TYPE>U</CLASSIFICATION_TYPE><NORAD_CAT_ID>33060</NORAD_CAT_ID><ELEMENT_SET_NO>999</ELEMENT_SET_NO><REV_AT_EPOCH>82451</REV_AT_EPOCH><BSTAR>.44433E-3</BSTAR><MEAN_MOTION_DOT>.2902E-4</MEAN_MOTION_DOT><MEAN_MOTION_DDOT>0</MEAN_MOTION_DDOT></tleParameters></data></segment></body></omm>
<omm id="CCSDS_OMM_VERS" version="2.0">
<header><CREATION_DATE/><ORIGINATOR/></header><body><segment><metadata><OBJECT_NAME>ORBCOMM FM41 [-]</OBJECT_NAME><OBJECT_ID>2008-031B</OBJECT_ID><CENTER_NAME>EARTH</CENTER_NAME><REF_FRAME>TEME</REF_FRAME><TIME_SYSTEM>UTC</TIME_SYSTEM><MEAN_ELEMENT_THEORY>SGP4</MEAN_ELEMENT_THEORY></metadata><data><meanElements><EPOCH>2023-10-17T10:13:17.068800</EPOCH><MEAN_MOTION>14.75978623</MEAN_MOTION><ECCENTRICITY>.0005406</ECCENTRICITY><INCLINATION>48.4459</INCLINATION><RA_OF_ASC_NODE>330.1148</RA_OF_ASC_NODE><ARG_OF_PERICENTER>297.0148</ARG_OF_PERICENTER><MEAN_ANOMALY>76.6874</MEAN_ANOMALY></meanElements><tleParameters><EPHEMERIS_TYPE>0</EPHEMERIS_TYPE><CLASSIFICATION_TYPE>U</CLASSIFICATION_TYPE><NORAD_CAT_ID>33061</NORAD_CAT_ID><ELEMENT_SET_NO>999</ELEMENT_SET_NO><REV_AT_EPOCH>82461</REV_AT_EPOCH><BSTAR>.43209E-3</BSTAR><MEAN_MOTION_DOT>.2801E-4</MEAN_MOTION_DOT><MEAN_MOTION_DDOT>0</MEAN_MOTION_DDOT></tleParameters></data></segment></body></omm>
<omm id="CCSDS_OMM_VERS" version="2.0">
<header><CREATION_DATE/><ORIGINATOR/></header><body><segment><metadata><OBJECT_NAME>ORBCOMM FM29 [-]</OBJECT_NAME><OBJECT_ID>2008-031C</OBJECT_ID><CENTER_NAME>EARTH</CENTER_NAME><REF_FRAME>TEME</REF_FRAME><TIME_SYSTEM>UTC</TIME_SYSTEM><MEAN_ELEMENT_THEORY>SGP4</MEAN_ELEMENT_THEORY></metadata><data><meanElements><EPOCH>2023-10-17T09:37:24.868992</EPOCH><MEAN_MOTION>14.75860327</MEAN_MOTION><ECCENTRICITY>.0007277</ECCENTRICITY><INCLINATION>48.4411</INCLINATION><RA_OF_ASC_NODE>338.2135</RA_OF_ASC_NODE><ARG_OF_PERICENTER>295.2843</ARG_OF_PERICENTER><MEAN_ANOMALY>78.1895</MEAN_ANOMALY></meanElements><tleParameters><EPHEMERIS_TYPE>0</EPHEMERIS_TYPE><CLASSIFICATION_TYPE>U</CLASSIFICATION_TYPE><NORAD_CAT_ID>33062</NORAD_CAT_ID><ELEMENT_SET_NO>999</ELEMENT_SET_NO><REV_AT_EPOCH>82447</REV_AT_EPOCH><BSTAR>.42561E-3</BSTAR><MEAN_MOTION_DOT>.2748E-4</MEAN_MOTION_DOT><MEAN_MOTION_DDOT>0</MEAN_MOTION_DDOT></tleParameters></data></segment></body></omm>
<omm id="CCSDS_OMM_VERS" version="2.0">
<header><CREATION_DATE/><ORIGINATOR/></header><body><segment><metadata><OBJECT_NAME>ORBCOMM FM39 [-]</OBJECT_NAME><OBJECT_ID>2008-031D</OBJECT_ID><CENTER_NAME>EARTH</CENTER_NAME><REF_FRAME>TEME</REF_FRAME><TIME_SYSTEM>UTC</TIME_SYSTEM><MEAN_ELEMENT_THEORY>SGP4</MEAN_ELEMENT_THEORY></metadata><data><meanElements><EPOCH>2023-10-17T05:40:07.322304</EPOCH><MEAN_MOTION>14.75015042</MEAN_MOTION><ECCENTRICITY>.0008253</ECCENTRICITY><INCLINATION>48.4428</INCLINATION><RA_OF_ASC_NODE>358.0811</RA_OF_ASC_NODE><ARG_OF_PERICENTER>272.8978</ARG_OF_PERICENTER><MEAN_ANOMALY>87.0990</MEAN_ANOMALY></meanElements><tleParameters><EPHEMERIS_TYPE>0</EPHEMERIS_TYPE><CLASSIFICATION_TYPE>U</CLASSIFICATION_TYPE><NORAD_CAT_ID>33063</NORAD_CAT_ID><ELEMENT_SET_NO>999</ELEMENT_SET_NO><REV_AT_EPOCH>82419</REV_AT_EPOCH><BSTAR>.42995E-3</BSTAR><MEAN_MOTION_DOT>.2721E-4</MEAN_MOTION_DOT><MEAN_MOTION_DDOT>0</MEAN_MOTION_DDOT></tleParameters></data></segment></body></omm>

</ndm>
