ORBCOMM FM33 [-]        
1 25983U 99065D   23289.53574113  .00002457  00000+0  87033-3 0  9990
2 25983  45.0309   9.6082 0010478 237.9998 136.4530 14.36858860248377
ORBCOMM FM36 [-]        
1 25984U 99065E   23289.47404681  .00002299  00000+0  85355-3 0  9995
2 25984  45.0385  91.8315 0004032 128.2445 231.8766 14.34722944246765
ORBCOMM FM35 [+]        
1 25985U 99065F   23289.46488942  .00001809  00000+0  68649-3 0  9990
2 25985  45.0386  93.9628 0003393 219.5359 140.5241 14.34423577247163
ORBCOMM FM34 [-]        
1 25986U 99065G   23290.40415130  .00001876  00000+0  71065-3 0  9996
2 25986  45.0385  90.0127 0004361 174.5334 185.5561 14.34374623247457
ORBCOMM FM38 [-]        
1 33060U 08031A   23289.39813783  .00002902  00000+0  44433-3 0  9993
2 33060  48.4421 328.8138 0006263 305.3689  54.6639 14.76205531824518
ORBCOMM FM41 [-]        
1 33061U 08031B   23290.42589200  .00002801  00000+0  43209-3 0  9992
2 33061  48.4459 330.1148 0005406 297.0148  76.6874 14.75978623824616
ORBCOMM FM29 [-]        
1 33062U 08031C   23290.40098228  .00002748  00000+0  42561-3 0  9996
2 33062  48.4411 338.2135 0007277 295.2843  78.1895 14.75860327824475
ORBCOMM FM39 [-]        
1 33063U 08031D   23290.23619586  .00002721  00000+0  42995-3 0  9996
2 33063  48.4428 358.0811 0008253 272.8978  87.0990 14.75015042824190
